STARLINK-1356           
1 45564U 20025AK  26068.40776305  .00089774  00000+0  18744-2 0  9997
2 45564  53.0527  75.1976 0005933  32.1669 327.9698 15.44776817325509
STARLINK-1502           
1 45764U 20038AL  26068.68657557  .00093492  00000+0  18008-2 0  9995
2 45764  53.0523 206.0601 0002729  10.3487 349.7575 15.47123466316632
